[{"OBJECT_NAME":"POLYITAN-1","OBJECT_ID":"2014-033AJ","EPOCH":"2026-03-09T22:27:50.258304","MEAN_MOTION":15.29568085,"ECCENTRICITY":0.00093607,"INCLINATION":98.1053,"RA_OF_ASC_NODE":86.0432,"ARG_OF_PERICENTER":127.248,"MEAN_ANOMALY":232.9614,"EPHEMERIS_TYPE":0,"CLASSIFICATION_TYPE":"U","NORAD_CAT_ID":40042,"ELEMENT_SET_NO":999,"REV_AT_EPOCH":63840,"BSTAR":0.00083772474,"MEAN_MOTION_DOT":0.00024003,"MEAN_MOTION_DDOT":0},{"OBJECT_NAME":"STARLINK-35640","OBJECT_ID":"2025-265W","EPOCH":"2026-03-09T23:05:29.944032","MEAN_MOTION":15.27593141,"ECCENTRICITY":1.627e-5,"INCLINATION":42.9995,"RA_OF_ASC_NODE":276.5185,"ARG_OF_PERICENTER":152.7978,"MEAN_ANOMALY":207.2882,"EPHEMERIS_TYPE":0,"CLASSIFICATION_TYPE":"U","NORAD_CAT_ID":66536,"ELEMENT_SET_NO":999,"REV_AT_EPOCH":1715,"BSTAR":0.00084926025,"MEAN_MOTION_DOT":0.00023191,"MEAN_MOTION_DDOT":0}]
